{
  "type": "FeatureCollection",
  "features": [
    {
      "type": "Feature",
      "properties": {
        "norad_id": 58647,
        "name": "TIANMU-1 13",
        "group": "weather",
        "lat": -4.449259460289186,
        "lon": 4.947762990579788,
        "alt_km": 495.18810002747614,
        "timestamp": "2025-12-10T16:57:11.278517+00:00",
        "meta_object_name": "TIANMU-1 13",
        "meta_object_id": "2023-205C",
        "meta_epoch": "2025-12-10T12:14:48.502176",
        "meta_mean_motion": 15.24479406,
        "meta_eccentricity": 0.0006037,
        "meta_inclination": 97.3626,
        "meta_ra_of_asc_node": 4.1786,
        "meta_arg_of_pericenter": 277.539,
        "meta_mean_anomaly": 82.5162,
        "meta_ephemeris_type": 0,
        "meta_classification_type": "U",
        "meta_norad_cat_id": 58647,
        "meta_element_set_no": 999,
        "meta_rev_at_epoch": 10873,
        "meta_bstar": 0.00037547,
        "meta_mean_motion_dot": 9.162e-05,
        "meta_mean_motion_ddot": 0,
        "tle_line1": "1 58647U 23205C   25344.51028359  .00009162  00000+0  37547-3 0  9999",
        "tle_line2": "2 58647  97.3626   4.1786 0006037 277.5390  82.5162 15.24479406108735"
      },
      "geometry": {
        "type": "Point",
        "coordinates": [
          4.947762990579788,
          -4.449259460289186
        ]
      }
    },
    {
      "type": "Feature",
      "properties": {
        "norad_id": 58648,
        "name": "TIANMU-1 14",
        "group": "weather",
        "lat": 81.95602103017062,
        "lon": -62.35562314940869,
        "alt_km": 489.50735523451294,
        "timestamp": "2025-12-10T16:57:11.278527+00:00",
        "meta_object_name": "TIANMU-1 14",
        "meta_object_id": "2023-205D",
        "meta_epoch": "2025-12-10T11:50:52.071072",
        "meta_mean_motion": 15.24462774,
        "meta_eccentricity": 0.0006888,
        "meta_inclination": 97.3558,
        "meta_ra_of_asc_node": 3.5132,
        "meta_arg_of_pericenter": 282.7071,
        "meta_mean_anomaly": 77.3397,
        "meta_ephemeris_type": 0,
        "meta_classification_type": "U",
        "meta_norad_cat_id": 58648,
        "meta_element_set_no": 999,
        "meta_rev_at_epoch": 10873,
        "meta_bstar": 0.00038833,
        "meta_mean_motion_dot": 9.475e-05,
        "meta_mean_motion_ddot": 0,
        "tle_line1": "1 58648U 23205D   25344.49365823  .00009475  00000+0  38833-3 0  9993",
        "tle_line2": "2 58648  97.3558   3.5132 0006888 282.7071  77.3397 15.24462774108738"
      },
      "geometry": {
        "type": "Point",
        "coordinates": [
          -62.35562314940869,
          81.95602103017062
        ]
      }
    },
    {
      "type": "Feature",
      "properties": {
        "norad_id": 58660,
        "name": "TIANMU-1 19",
        "group": "weather",
        "lat": -42.344559326237906,
        "lon": 102.58606592239666,
        "alt_km": 487.5137483923281,
        "timestamp": "2025-12-10T16:57:11.278537+00:00",
        "meta_object_name": "TIANMU-1 19",
        "meta_object_id": "2023-208A",
        "meta_epoch": "2025-12-10T13:59:46.434048",
        "meta_mean_motion": 15.27785343,
        "meta_eccentricity": 0.000404,
        "meta_inclination": 97.4387,
        "meta_ra_of_asc_node": 95.6245,
        "meta_arg_of_pericenter": 262.8858,
        "meta_mean_anomaly": 97.1922,
        "meta_ephemeris_type": 0,
        "meta_classification_type": "U",
        "meta_norad_cat_id": 58660,
        "meta_element_set_no": 999,
        "meta_rev_at_epoch": 10849,
        "meta_bstar": 0.00052376,
        "meta_mean_motion_dot": 0.00014155,
        "meta_mean_motion_ddot": 0,
        "tle_line1": "1 58660U 23208A   25344.58317632  .00014155  00000+0  52376-3 0  9994",
        "tle_line2": "2 58660  97.4387  95.6245 0004040 262.8858  97.1922 15.27785343108490"
      },
      "geometry": {
        "type": "Point",
        "coordinates": [
          102.58606592239666,
          -42.344559326237906
        ]
      }
    },
    {
      "type": "Feature",
      "properties": {
        "norad_id": 58661,
        "name": "TIANMU-1 20",
        "group": "weather",
        "lat": 22.56300240413451,
        "lon": 93.08368388129996,
        "alt_km": 479.9630776150816,
        "timestamp": "2025-12-10T16:57:11.278547+00:00",
        "meta_object_name": "TIANMU-1 20",
        "meta_object_id": "2023-208B",
        "meta_epoch": "2025-12-10T13:42:44.938080",
        "meta_mean_motion": 15.28976136,
        "meta_eccentricity": 0.000629,
        "meta_inclination": 97.4325,
        "meta_ra_of_asc_node": 96.0582,
        "meta_arg_of_pericenter": 275.1821,
        "meta_mean_anomaly": 84.87,
        "meta_ephemeris_type": 0,
        "meta_classification_type": "U",
        "meta_norad_cat_id": 58661,
        "meta_element_set_no": 999,
        "meta_rev_at_epoch": 10856,
        "meta_bstar": 0.00049246,
        "meta_mean_motion_dot": 0.00013801,
        "meta_mean_motion_ddot": 0,
        "tle_line1": "1 58661U 23208B   25344.57135345  .00013801  00000+0  49246-3 0  9992",
        "tle_line2": "2 58661  97.4325  96.0582 0006290 275.1821  84.8700 15.28976136108566"
      },
      "geometry": {
        "type": "Point",
        "coordinates": [
          93.08368388129996,
          22.56300240413451
        ]
      }
    },
    {
      "type": "Feature",
      "properties": {
        "norad_id": 58662,
        "name": "TIANMU-1 21",
        "group": "weather",
        "lat": 9.070428596473747,
        "lon": 96.89738984834943,
        "alt_km": 473.97068960284287,
        "timestamp": "2025-12-10T16:57:11.278556+00:00",
        "meta_object_name": "TIANMU-1 21",
        "meta_object_id": "2023-208C",
        "meta_epoch": "2025-12-10T13:46:37.360992",
        "meta_mean_motion": 15.31475186,
        "meta_eccentricity": 0.0005867,
        "meta_inclination": 97.4373,
        "meta_ra_of_asc_node": 97.9596,
        "meta_arg_of_pericenter": 269.2824,
        "meta_mean_anomaly": 90.7745,
        "meta_ephemeris_type": 0,
        "meta_classification_type": "U",
        "meta_norad_cat_id": 58662,
        "meta_element_set_no": 999,
        "meta_rev_at_epoch": 10866,
        "meta_bstar": 0.00053187,
        "meta_mean_motion_dot": 0.00016113,
        "meta_mean_motion_ddot": 0,
        "tle_line1": "1 58662U 23208C   25344.57404353  .00016113  00000+0  53187-3 0  9999",
        "tle_line2": "2 58662  97.4373  97.9596 0005867 269.2824  90.7745 15.31475186108660"
      },
      "geometry": {
        "type": "Point",
        "coordinates": [
          96.89738984834943,
          9.070428596473747
        ]
      }
    },
    {
      "type": "Feature",
      "properties": {
        "norad_id": 58663,
        "name": "TIANMU-1 22",
        "group": "weather",
        "lat": -39.431956163143816,
        "lon": 101.97492026916198,
        "alt_km": 487.96898474285445,
        "timestamp": "2025-12-10T16:57:11.278567+00:00",
        "meta_object_name": "TIANMU-1 22",
        "meta_object_id": "2023-208D",
        "meta_epoch": "2025-12-10T13:58:58.093248",
        "meta_mean_motion": 15.27544714,
        "meta_eccentricity": 0.0002731,
        "meta_inclination": 97.4381,
        "meta_ra_of_asc_node": 95.684,
        "meta_arg_of_pericenter": 298.5241,
        "meta_mean_anomaly": 61.5723,
        "meta_ephemeris_type": 0,
        "meta_classification_type": "U",
        "meta_norad_cat_id": 58663,
        "meta_element_set_no": 999,
        "meta_rev_at_epoch": 10850,
        "meta_bstar": 0.000498,
        "meta_mean_motion_dot": 0.00013354,
        "meta_mean_motion_ddot": 0,
        "tle_line1": "1 58663U 23208D   25344.58261682  .00013354  00000+0  49800-3 0  9998",
        "tle_line2": "2 58663  97.4381  95.6840 0002731 298.5241  61.5723 15.27544714108506"
      },
      "geometry": {
        "type": "Point",
        "coordinates": [
          101.97492026916198,
          -39.431956163143816
        ]
      }
    },
    {
      "type": "Feature",
      "properties": {
        "norad_id": 58700,
        "name": "TIANMU-1 15",
        "group": "weather",
        "lat": 67.70953488439044,
        "lon": 4.833121236195191,
        "alt_km": 488.79214732246237,
        "timestamp": "2025-12-10T16:57:11.278577+00:00",
        "meta_object_name": "TIANMU-1 15",
        "meta_object_id": "2024-004A",
        "meta_epoch": "2025-12-10T13:19:02.836416",
        "meta_mean_motion": 15.24633017,
        "meta_eccentricity": 0.000528,
        "meta_inclination": 97.4631,
        "meta_ra_of_asc_node": 166.0326,
        "meta_arg_of_pericenter": 307.9614,
        "meta_mean_anomaly": 52.1145,
        "meta_ephemeris_type": 0,
        "meta_classification_type": "U",
        "meta_norad_cat_id": 58700,
        "meta_element_set_no": 999,
        "meta_rev_at_epoch": 10701,
        "meta_bstar": 0.00040538,
        "meta_mean_motion_dot": 9.941e-05,
        "meta_mean_motion_ddot": 0,
        "tle_line1": "1 58700U 24004A   25344.55489394  .00009941  00000+0  40538-3 0  9990",
        "tle_line2": "2 58700  97.4631 166.0326 0005280 307.9614  52.1145 15.24633017107010"
      },
      "geometry": {
        "type": "Point",
        "coordinates": [
          4.833121236195191,
          67.70953488439044
        ]
      }
    }
  ]
}